start=new Date('2022-03-05T00:00:00.000Z').valueOf();
sats=[{"TIME_SYSTEM":"UTC","TLE_LINE1":"1 46141U 20057AA  22063.89073430  .00004258  00000-0  30459-3 0  9990","OBJECT_TYPE":"PAYLOAD","MEAN_MOTION":"15.06401957","RCS_SIZE":"LARGE","ELEMENT_SET_NO":"999","MEAN_MOTION_DOT":"0.00004258","GP_ID":"197902669","ARG_OF_PERICENTER":"59.9342","SEMIMAJOR_AXIS":"6925.343","INCLINATION":"53.0546","COUNTRY_CODE":"US","MEAN_MOTION_DDOT":"0.0000000000000","REV_AT_EPOCH":"8569","BSTAR":"0.00030459000000","APOAPSIS":"548.355","REF_FRAME":"TEME","MEAN_ELEMENT_THEORY":"SGP4","FILE":"3344863","EPHEMERIS_TYPE":"0","DECAY_DATE":null,"NORAD_CAT_ID":"46141","RA_OF_ASC_NODE":"16.8411","TLE_LINE2":"2 46141  53.0546  16.8411 0001657  59.9342 300.1812 15.06401957 85694","PERIAPSIS":"546.060","SITE":"AFETR","CLASSIFICATION_TYPE":"U","LAUNCH_DATE":"2020-08-18","EPOCH":"2022-03-04T21:22:39.443520","OBJECT_NAME":"STARLINK-1596","MEAN_ANOMALY":"300.1812","CENTER_NAME":"EARTH","OBJECT_ID":"2020-057AA","ECCENTRICITY":"0.00016570","PERIOD":"95.592"},{"MEAN_MOTION_DOT":"0.00001375","ELEMENT_SET_NO":"999","GP_ID":"197902921","OBJECT_TYPE":"PAYLOAD","MEAN_MOTION":"15.06396348","TLE_LINE1":"1 46142U 20057AB  22063.71013137  .00001375  00000-0  11121-3 0  9992","TIME_SYSTEM":"UTC","RCS_SIZE":"LARGE","REV_AT_EPOCH":"8510","FILE":"3344863","APOAPSIS":"548.482","REF_FRAME":"TEME","MEAN_ELEMENT_THEORY":"SGP4","BSTAR":"0.00011121000000","ARG_OF_PERICENTER":"57.5213","MEAN_MOTION_DDOT":"0.0000000000000","COUNTRY_CODE":"US","INCLINATION":"53.0548","SEMIMAJOR_AXIS":"6925.360","NORAD_CAT_ID":"46142","TLE_LINE2":"2 46142  53.0548  57.6604 0001816  57.5213 302.5952 15.06396348 85106","RA_OF_ASC_NODE":"57.6604","EPHEMERIS_TYPE":"0","DECAY_DATE":null,"ECCENTRICITY":"0.00018160","MEAN_ANOMALY":"302.5952","OBJECT_NAME":"STARLINK-1597","OBJECT_ID":"2020-057AB","CENTER_NAME":"EARTH","PERIOD":"95.592","CLASSIFICATION_TYPE":"U","SITE":"AFETR","PERIAPSIS":"545.967","EPOCH":"2022-03-04T17:02:35.350368","LAUNCH_DATE":"2020-08-18"},{"NORAD_CAT_ID":"46144","TLE_LINE2":"2 46144  53.0556  39.3073 0001743  65.7317 294.3854 15.06413726 73587","RA_OF_ASC_NODE":"39.3073","EPHEMERIS_TYPE":"0","DECAY_DATE":null,"ECCENTRICITY":"0.00017430","MEAN_ANOMALY":"294.3854","OBJECT_ID":"2020-057AD","OBJECT_NAME":"STARLINK-1606","CENTER_NAME":"EARTH","PERIOD":"95.591","CLASSIFICATION_TYPE":"U","SITE":"AFETR","PERIAPSIS":"545.964","EPOCH":"2022-03-04T08:14:27.377088","LAUNCH_DATE":"2020-08-18","MEAN_MOTION_DOT":"0.00004234","ELEMENT_SET_NO":"999","GP_ID":"197840881","OBJECT_TYPE":"PAYLOAD","MEAN_MOTION":"15.06413726","TIME_SYSTEM":"UTC","TLE_LINE1":"1 46144U 20057AD  22063.34337242  .00004234  00000-0  30284-3 0  9997","RCS_SIZE":"LARGE","REV_AT_EPOCH":"7358","FILE":"3344357","APOAPSIS":"548.379","MEAN_ELEMENT_THEORY":"SGP4","REF_FRAME":"TEME","BSTAR":"0.00030284000000","ARG_OF_PERICENTER":"65.7317","MEAN_MOTION_DDOT":"0.0000000000000","INCLINATION":"53.0556","COUNTRY_CODE":"US","SEMIMAJOR_AXIS":"6925.306"},{"EPHEMERIS_TYPE":"0","DECAY_DATE":null,"NORAD_CAT_ID":"46146","RA_OF_ASC_NODE":"58.1944","TLE_LINE2":"2 46146  53.0542  58.1944 0002243  52.9706 307.1488 15.06369308 85097","PERIAPSIS":"545.754","SITE":"AFETR","CLASSIFICATION_TYPE":"U","LAUNCH_DATE":"2020-08-18","EPOCH":"2022-03-04T14:07:28.424352","MEAN_ANOMALY":"307.1488","OBJECT_NAME":"STARLINK-1608","OBJECT_ID":"2020-057AF","CENTER_NAME":"EARTH","ECCENTRICITY":"0.00022430","PERIOD":"95.594","TIME_SYSTEM":"UTC","TLE_LINE1":"1 46146U 20057AF  22063.58852343 -.00004180  00000-0 -26210-3 0  9995","MEAN_MOTION":"15.06369308","OBJECT_TYPE":"PAYLOAD","RCS_SIZE":"LARGE","ELEMENT_SET_NO":"999","MEAN_MOTION_DOT":"-0.00004180","GP_ID":"197901920","ARG_OF_PERICENTER":"52.9706","SEMIMAJOR_AXIS":"6925.443","COUNTRY_CODE":"US","INCLINATION":"53.0542","MEAN_MOTION_DDOT":"0.0000000000000","REV_AT_EPOCH":"8509","BSTAR":"-0.00026210000000","APOAPSIS":"548.861","REF_FRAME":"TEME","MEAN_ELEMENT_THEORY":"SGP4","FILE":"3344863"},{"EPHEMERIS_TYPE":"0","DECAY_DATE":null,"NORAD_CAT_ID":"46147","TLE_LINE2":"2 46147  53.0559  57.6809 0002171  42.5434 317.5723 15.06391999 86362","RA_OF_ASC_NODE":"57.6809","CLASSIFICATION_TYPE":"U","SITE":"AFETR","PERIAPSIS":"545.735","EPOCH":"2022-03-04T16:51:58.762944","LAUNCH_DATE":"2020-08-18","ECCENTRICITY":"0.00021710","OBJECT_NAME":"STARLINK-1611","MEAN_ANOMALY":"317.5723","OBJECT_ID":"2020-057AG","CENTER_NAME":"EARTH","PERIOD":"95.593","MEAN_MOTION":"15.06391999","OBJECT_TYPE":"PAYLOAD","TLE_LINE1":"1 46147U 20057AG  22063.70276346  .00000640  00000-0  61867-4 0  9996","TIME_SYSTEM":"UTC","RCS_SIZE":"LARGE","MEAN_MOTION_DOT":"0.00000640","ELEMENT_SET_NO":"999","GP_ID":"197902170","ARG_OF_PERICENTER":"42.5434","MEAN_MOTION_DDOT":"0.0000000000000","INCLINATION":"53.0559","COUNTRY_CODE":"US","SEMIMAJOR_AXIS":"6925.373","REV_AT_EPOCH":"8636","FILE":"3344863","REF_FRAME":"TEME","APOAPSIS":"548.742","MEAN_ELEMENT_THEORY":"SGP4","BSTAR":"0.00006186700000"},{"SITE":"AFETR","CLASSIFICATION_TYPE":"U","PERIAPSIS":"545.985","EPOCH":"2022-03-04T07:26:41.923680","LAUNCH_DATE":"2020-08-18","OBJECT_NAME":"STARLINK-1616","MEAN_ANOMALY":"300.8943","CENTER_NAME":"EARTH","OBJECT_ID":"2020-057AH","ECCENTRICITY":"0.00017970","PERIOD":"95.592","EPHEMERIS_TYPE":"0","DECAY_DATE":null,"NORAD_CAT_ID":"46148","TLE_LINE2":"2 46148  53.0569  39.4432 0001797  59.2223 300.8943 15.06394767 85328","RA_OF_ASC_NODE":"39.4432","ARG_OF_PERICENTER":"59.2223","INCLINATION":"53.0569","COUNTRY_CODE":"US","MEAN_MOTION_DDOT":"0.0000000000000","SEMIMAJOR_AXIS":"6925.365","REV_AT_EPOCH":"8532","FILE":"3344357","BSTAR":"0.00008188700000","APOAPSIS":"548.474","REF_FRAME":"TEME","MEAN_ELEMENT_THEORY":"SGP4","MEAN_MOTION":"15.06394767","OBJECT_TYPE":"PAYLOAD","TIME_SYSTEM":"UTC","TLE_LINE1":"1 46148U 20057AH  22063.31020745  .00000938  00000-0  81887-4 0  9998","RCS_SIZE":"LARGE","MEAN_MOTION_DOT":"0.00000938","ELEMENT_SET_NO":"999","GP_ID":"197841131"},{"ELEMENT_SET_NO":"999","MEAN_MOTION_DOT":"0.00000981","GP_ID":"197903664","TLE_LINE1":"1 46149U 20057AJ  22063.65668318  .00000981  00000-0  84787-4 0  9990","TIME_SYSTEM":"UTC","MEAN_MOTION":"15.06395510","OBJECT_TYPE":"PAYLOAD","RCS_SIZE":"LARGE","REV_AT_EPOCH":"8665","BSTAR":"0.00008478700000","MEAN_ELEMENT_THEORY":"SGP4","APOAPSIS":"548.271","REF_FRAME":"TEME","FILE":"3344863","ARG_OF_PERICENTER":"60.6851","SEMIMAJOR_AXIS":"6925.362","COUNTRY_CODE":"US","INCLINATION":"53.0552","MEAN_MOTION_DDOT":"0.0000000000000","NORAD_CAT_ID":"46149","RA_OF_ASC_NODE":"37.9023","TLE_LINE2":"2 46149  53.0552  37.9023 0001507  60.6851 299.4288 15.06395510 86651","EPHEMERIS_TYPE":"0","DECAY_DATE":null,"OBJECT_NAME":"STARLINK-1620","MEAN_ANOMALY":"299.4288","CENTER_NAME":"EARTH","OBJECT_ID":"2020-057AJ","ECCENTRICITY":"0.00015070","PERIOD":"95.592","PERIAPSIS":"546.184","SITE":"AFETR","CLASSIFICATION_TYPE":"U","LAUNCH_DATE":"2020-08-18","EPOCH":"2022-03-04T15:45:37.426752"},{"ELEMENT_SET_NO":"999","MEAN_MOTION_DOT":"-0.00001028","GP_ID":"197902420","TIME_SYSTEM":"UTC","TLE_LINE1":"1 46150U 20057AK  22063.71750205 -.00001028  00000-0 -50126-4 0  9991","OBJECT_TYPE":"PAYLOAD","MEAN_MOTION":"15.06395404","RCS_SIZE":"LARGE","REV_AT_EPOCH":"8511","APOAPSIS":"548.445","MEAN_ELEMENT_THEORY":"SGP4","REF_FRAME":"TEME","BSTAR":"-0.00005012600000","FILE":"3344863","ARG_OF_PERICENTER":"58.3868","SEMIMAJOR_AXIS":"6925.363","MEAN_MOTION_DDOT":"0.0000000000000","INCLINATION":"53.0552","COUNTRY_CODE":"US","NORAD_CAT_ID":"46150","RA_OF_ASC_NODE":"57.6147","TLE_LINE2":"2 46150  53.0552  57.6147 0001758  58.3868 301.7292 15.06395404 85113","EPHEMERIS_TYPE":"0","DECAY_DATE":null,"ECCENTRICITY":"0.00017580","MEAN_ANOMALY":"301.7292","OBJECT_ID":"2020-057AK","OBJECT_NAME":"STARLINK-1629","CENTER_NAME":"EARTH","PERIOD":"95.592","PERIAPSIS":"546.010","CLASSIFICATION_TYPE":"U","SITE":"AFETR","LAUNCH_DATE":"2020-08-18","EPOCH":"2022-03-04T17:13:12.177120"},{"NORAD_CAT_ID":"46151","TLE_LINE2":"2 46151  53.0549  38.9197 0001721  61.3706 298.7456 15.06394531 85344","RA_OF_ASC_NODE":"38.9197","EPHEMERIS_TYPE":"0","DECAY_DATE":null,"ECCENTRICITY":"0.00017210","MEAN_ANOMALY":"298.7456","CENTER_NAME":"EARTH","OBJECT_NAME":"STARLINK-1631","OBJECT_ID":"2020-057AL","PERIOD":"95.592","CLASSIFICATION_TYPE":"U","SITE":"AFETR","PERIAPSIS":"546.038","EPOCH":"2022-03-04T10:16:32.631744","LAUNCH_DATE":"2020-08-18","MEAN_MOTION_DOT":"0.00001426","ELEMENT_SET_NO":"999","GP_ID":"197842369","OBJECT_TYPE":"PAYLOAD","MEAN_MOTION":"15.06394531","TIME_SYSTEM":"UTC","TLE_LINE1":"1 46151U 20057AL  22063.42815546  .00001426  00000-0  11465-3 0  9992","RCS_SIZE":"LARGE","REV_AT_EPOCH":"8534","FILE":"3344357","APOAPSIS":"548.422","REF_FRAME":"TEME","MEAN_ELEMENT_THEORY":"SGP4","BSTAR":"0.00011465000000","ARG_OF_PERICENTER":"61.3706","MEAN_MOTION_DDOT":"0.0000000000000","COUNTRY_CODE":"US","INCLINATION":"53.0549","SEMIMAJOR_AXIS":"6925.365"},{"NORAD_CAT_ID":"46152","TLE_LINE2":"2 46152  53.0555  59.5939 0001702  72.0461 288.0714 15.06404808 85709","RA_OF_ASC_NODE":"59.5939","EPHEMERIS_TYPE":"0","DECAY_DATE":null,"MEAN_ANOMALY":"288.0714","CENTER_NAME":"EARTH","OBJECT_ID":"2020-057AM","OBJECT_NAME":"STARLINK-1634","ECCENTRICITY":"0.00017020","PERIOD":"95.592","SITE":"AFETR","CLASSIFICATION_TYPE":"U","PERIAPSIS":"546.020","EPOCH":"2022-03-04T06:41:34.440576","LAUNCH_DATE":"2020-08-18","MEAN_MOTION_DOT":"0.00002001","ELEMENT_SET_NO":"999","GP_ID":"197873165","MEAN_MOTION":"15.06404808","OBJECT_TYPE":"PAYLOAD","TLE_LINE1":"1 46152U 20057AM  22063.27887084  .00002001  00000-0  15320-3 0  9996","TIME_SYSTEM":"UTC","RCS_SIZE":"LARGE","REV_AT_EPOCH":"8570","FILE":"3344418","BSTAR":"0.00015320000000","APOAPSIS":"548.378","REF_FRAME":"TEME","MEAN_ELEMENT_THEORY":"SGP4","ARG_OF_PERICENTER":"72.0461","COUNTRY_CODE":"US","INCLINATION":"53.0555","MEAN_MOTION_DDOT":"0.0000000000000","SEMIMAJOR_AXIS":"6925.334"}];
